FAUNA                   
1 43052U 17071R   19043.79407512  .00003415  00000-0  92102-4 0  9993
2 43052  51.6394 307.2068 0003056  81.1873 278.9457 15.40681826 66647
CORVUS BC3              
1 43118U 18004H   19044.22477477  .00000650  00000-0  30997-4 0  9991
2 43118  97.5029 111.9096 0009817 340.1273  19.9580 15.22629834 60384
MICROMAS-2A             
1 43131U 18004W   19043.86513903  .00001633  00000-0  71152-4 0  9990
2 43131  97.5047 111.9822 0008902 344.6578  15.4387 15.23635227 60354
CICERO 7                
1 43143U 18004AJ  19044.42855896  .00001186  00000-0  52182-4 0  9991
2 43143  97.5037 112.7454 0007275 355.4191   4.6978 15.23862435 60459
GOMX-4B                 
1 43196U 18015E   19044.54788687  .00000271  00000-0  14147-4 0  9990
2 43196  97.3715 174.0228 0019972  30.9819 329.2592 15.23807074 57280
GOMX-4A                 
1 43197U 18015F   19044.68826446  .00000326  00000-0  16358-4 0  9999
2 43197  97.3735 174.1751 0020355  32.5583  75.5003 15.23903549 57314
1KUNS-PF                
1 43466U 98067NP  19044.73337471  .00016814  00000-0  19721-3 0  9999
2 43466  51.6377 246.5339 0000264 138.9163 221.1851 15.61624716 43364
UBAKUSAT                
1 43467U 98067NQ  19044.73176075  .00010697  00000-0  13650-3 0  9999
2 43467  51.6373 248.0190 0001828 315.3400  44.7445 15.59873598 43353
BATSU-CS1 (IRAZU)       
1 43468U 98067NR  19044.75737809  .00022242  00000-0  24560-3 0  9991
2 43468  51.6372 245.1898 0000439 168.9504 191.1500 15.62977685143378
CUBERRT                 
1 43546U 98067NU  19044.83948842  .00017440  00000-0  21593-3 0  9995
2 43546  51.6375 249.4795 0005269  27.6507 332.4765 15.60167327 33475
TEMPEST-D               
1 43547U 98067NV  19044.84346602  .00004110  00000-0  63688-4 0  9995
2 43547  51.6379 251.7520 0005969  24.1759 335.9511 15.56507080 33128
RAINCUBE                
1 43548U 98067NW  19044.80436484  .00011442  00000-0  15368-3 0  9997
2 43548  51.6369 250.7419 0005481  33.2419 326.8917 15.58415525 33580
HALOSAT                 
1 43549U 98067NX  19044.80453170  .00009017  00000-0  12263-3 0  9995
2 43549  51.6371 250.7457 0005444  35.8501 324.2856 15.58394206 33143
ENDUROSAT ONE           
1 43551U 98067NZ  19044.73004821  .00013606  00000-0  17564-3 0  9993
2 43551  51.6379 250.2485 0005799  43.2891 316.8556 15.59284981 33556
EQUISAT                 
1 43552U 98067PA  19043.99698290  .00009382  00000-0  12605-3 0  9997
2 43552  51.6389 254.3577 0006205  39.6195 320.5250 15.58663715 33394
AEROCUBE 12A            
1 43556U 18046C   19043.85890766  .00001477  00000-0  65521-4 0  9990
2 43556  51.6426 300.0706 0008184 344.6501  15.4229 15.28291247 32312
AEROCUBE 12B            
1 43557U 18046D   19044.12548871  .00001008  00000-0  48877-4 0  9994
2 43557  51.6425 298.8487 0008236 345.9065  14.1684 15.28214130 32305
UITMSAT-1               
1 43589U 98067PD  19044.76442640  .00012812  00000-0  17099-3 0  9993
2 43589  51.6363 251.2184 0005573  52.3017 307.8481 15.58459174 29243
MAYA-1                  
1 43590U 98067PE  19043.60704899  .00010678  00000-0  14366-3 0  9996
2 43590  51.6363 256.9898 0005735  48.3502 311.7981 15.58454895 28998
BHUTAN-1                
1 43591U 98067PF  19044.56383217  .00010370  00000-0  13933-3 0  9998
2 43591  51.6375 252.1338 0005822  52.4414 307.7107 15.58526265 29148
SIRIUSSAT-1             
1 43595U 98067PG  19044.55866361  .00009796  00000-0  13494-3 0  9999
2 43595  51.6369 252.8428 0003028   6.2749 353.8281 15.57937528 28316
SIRIUSSAT-2             
1 43596U 98067PH  19043.80629938  .00009500  00000-0  13190-3 0  9990
2 43596  51.6382 256.8368 0003627   4.5912 355.5113 15.57763765 28196
TANUSHA-3               
1 43597U 98067PJ  19044.79155408  .00014682  00000-0  19457-3 0  9995
2 43597  51.6364 251.3792 0003144  25.7735 334.3414 15.58518822 28350
SURFSAT                 
1 43614U 18070B   19043.89471146  .00002441  00000-0  67461-4 0  9990
2 43614  93.0386 311.6978 0019249  73.7698 286.5671 15.36932260 23084
CP7 (DAVE)              
1 43615U 18070C   19044.28629498  .00002191  00000-0  60649-4 0  9993
2 43615  93.0387 311.8607 0019243  72.3504 287.9848 15.36895567 23148
ELFIN-B                 
1 43616U 18070D   19043.81259739  .00003360  00000-0  91830-4 0  9994
2 43616  93.0346 311.6070 0020307  76.5220 283.8294 15.37234411 23078
ELFIN-A                 
1 43617U 18070E   19043.80928811  .00003393  00000-0  92706-4 0  9997
2 43617  93.0404 311.7228 0019301  73.7015 286.6359 15.37268631 23077
DEBRISSAT-1             
1 43621U 98067PM  19044.59365773  .00351213  00000-0  13238-2 0  9993
2 43621  51.6350 241.8492 0004809 258.1870 101.8956 15.86263226 23455
CUBEBEL-1 (BSUSAT-1)    
1 43666U 18083E   19044.79067473  .00000978  00000-0  52427-4 0  9994
2 43666  97.5310  70.0614 0013710 262.1091 183.8854 15.17301616 16345
DEBRISSAT-2             
1 43680U 98067PR  19044.21900734  .00013671  00000-0  18269-3 0  9992
2 43680  51.6400 254.3227 0003281  48.5798 311.5475 15.58362576 37003
CICERO 10               
1 43690U 18088A   19043.77999466  .00000913  00000-0  41242-4 0  9991
2 43690  85.0364  41.3743 0013589 316.1509  43.8652 15.19398811 14215
IRVINE01                
1 43693U 18088D   19043.96341969  .00002096  00000-0  93035-4 0  9995
2 43693  85.0346  41.1001 0016553 298.8998  61.0582 15.20806651 14251
PROXIMA I               
1 43694U 18088E   19044.79071244  .00001003  00000-0  43107-4 0  9996
2 43694  85.0308  40.4641 0017300 285.4331  74.4999 15.21146584 14383
PROXIMA II              
1 43696U 18088G   19044.79032220  .00001009  00000-0  43374-4 0  9991
2 43696  85.0309  40.4648 0017335 285.3721  74.5604 15.21152760 14380
FACSAT-1                
1 43721U 18096C   19044.82640495  .00001401  00000-0  57275-4 0  9993
2 43721  97.4746 114.8358 0019528  53.4291 306.8741 15.25901726 11699
CENTAURI-2              
1 43722U 18096D   19044.82144983  .00001688  00000-0  68183-4 0  9992
2 43722  97.4746 114.8431 0019617  54.2495 306.0564 15.26029793 11686
CORVUS-BC 4             
1 43767U 18099K   19044.19076405 -.00000009  00000-0  44767-5 0  9997
2 43767  97.7578 117.5581 0012367  28.6706 331.5192 14.94513323 10671
SHIELDS 1               
1 43850U 18104B   19044.71264504  .00000042  00000-0  00000+0 0  9996
2 43850  85.0323 139.0484 0017272  72.5863 287.7326 15.20961633  9024
STF-1                   
1 43852U 18104D   19044.01454717  .00000041  00000-0  00000+0 0  9997
2 43852  85.0365 139.5881 0017344  85.9199 274.4062 15.20332531  8914
LUME 1                  
1 43908U 18111AJ  19044.80122490  .00001028  00000-0  44977-4 0  9996
2 43908  97.2986 313.4116 0023525  73.2685 287.1132 15.24048453  7427
AOBA VELOX-IV           
1 43940U 19003J   19044.76388764  .00001405  00000-0  61598-4 0  9993
2 43940  97.2941 106.2971 0025676 148.8296 308.6295 15.23326652  4062
CATSAT-2                
1 44029U 98067PV  19044.05254727  .00006784  00000-0  11022-3 0  9993
2 44029  51.6387 258.4692 0005233  46.7794 313.3632 15.53975699  2021
DELPHINI                
1 44030U 98067PW  19044.05256053  .00008206  00000-0  13174-3 0  9990
2 44030  51.6385 258.4695 0004800  47.9019 312.2379 15.53983104  1997
UNITE                   
1 44031U 98067PX  19044.05244716  .00005384  00000-0  89027-4 0  9999
2 44031  51.6386 258.4680 0003441  47.0141 313.1138 15.53967182  1991
TECHEDSAT 8             
1 44032U 98067PY  19044.82257058  .00017715  00000-0  27251-3 0  9999
2 44032  51.6386 254.6116 0003303  52.7222 307.4069 15.54301350  2095
CATSAT-1                
1 44033U 98067PZ  19043.79511553  .00006514  00000-0  10604-3 0  9997
2 44033  51.6388 259.7496 0005186  47.0475 313.0950 15.54000351  1899
